{"fetched_at":"2026-03-29T16:36:15Z","count":15609,"tles":[{"name":"STARLINK-31143","line1":"1 58770U 24011F   26087.83935955 -.00001071  00000+0 -24039-4 0  9997","line2":"2 58770  53.1602 284.6247 0000936 125.7543 234.3545 15.30198209123206","category":"Starlink"}]}