{
  "norad_id": 58770,
  "name": "STARLINK-31143",
  "history": [
    {
      "epoch": "2026-03-28T20:08:40.665120",
      "apogee_km": 475.8623024833896,
      "perigee_km": 474.57853157203135,
      "latitude_deg": 48.053477051519074,
      "longitude_deg": 137.57851679995656,
      "semi_major_axis_km": 6853.35741702771,
      "eccentricity": 9.366e-05,
      "inclination_deg": 53.1602,
      "raan_deg": 284.6247,
      "arg_perigee_deg": 125.7543,
      "mean_anomaly_deg": 234.3545,
      "mean_motion_rev_day": 15.30198209
    }
  ]
}